STARLINK-36699          
1 67652U 26022E   26048.16667824  .00000536  00000+0  44634-5 0  9997
2 67652  97.2840  81.1304 0001140  87.1123  69.6864 15.75193579  3591
STARLINK-36694          
1 67653U 26022F   26048.16667824 -.00038886  00000+0 -26081-3 0  9993
2 67653  97.2840  81.1354 0001201  77.4156  91.3821 15.75208652  3597
STARLINK-36620          
1 67654U 26022G   26048.16667824 -.00046369  00000+0 -31139-3 0  9999
2 67654  97.2840  81.1349 0001014  76.0737  94.7249 15.75212940  3590
STARLINK-36720          
1 67655U 26022H   26048.16667824  .00009526  00000+0  64692-4 0  9993
2 67655  97.2838  81.1396 0001332  88.3558  92.4432 15.75180983  3590
STARLINK-36688          
1 67656U 26022J   26048.16667824 -.00015121  00000+0 -10064-3 0  9997
2 67656  97.2840  81.1406 0001207  93.5105  91.2858 15.75199941  3596
STARLINK-36706          
1 67657U 26022K   26048.16667824 -.00036220  00000+0 -24282-3 0  9998
2 67657  97.2840  81.1431 0001430  88.0043 104.7846 15.75206412  3569
STARLINK-36701          
1 67658U 26022L   26048.16667824 -.00048450  00000+0 -32549-3 0  9992
2 67658  97.2841  81.1465 0001253  89.4816 109.3096 15.75212117  3594
STARLINK-36642          
1 67659U 26022M   26048.16667824 -.00069279  00000+0 -46661-3 0  9995
2 67659  97.2840  81.1498 0001082  95.0528 109.7276 15.75228419  3599
STARLINK-36673          
1 67660U 26022N   26048.16667824 -.00048844  00000+0 -32801-3 0  9993
2 67660  97.2841  81.1516 0001365  92.4487 120.3356 15.75222314  3598
STARLINK-36674          
1 67661U 26022P   26048.16667824 -.00083201  00000+0 -56142-3 0  9994
2 67661  97.2839  81.1548 0001353  99.0617 121.7187 15.75229405  3591
STARLINK-36700          
1 67662U 26022Q   26048.16667824 -.00055300  00000+0 -37177-3 0  9991
2 67662  97.2841  81.1598 0001339  81.6392 151.1521 15.75221792  3591
STARLINK-36675          
1 67663U 26022R   26048.16667824 -.00032327  00000+0 -21645-3 0  9999
2 67663  97.2839  81.1571 0001303  76.6581 148.1301 15.75214825  3596
