CCSDS_OMM_VERS = 2.0
CREATION_DATE  = 
ORIGINATOR     = 

OBJECT_NAME    = STARLINK-36699
OBJECT_ID      = 2026-022E
CENTER_NAME    = EARTH
REF_FRAME      = TEME
TIME_SYSTEM    = UTC
MEAN_ELEMENT_THEORY = SGP/SGP4

EPOCH          = 2026-02-17T04:00:00.999936
MEAN_MOTION    = 15.75193579
ECCENTRICITY   = .000114
INCLINATION    = 97.2840
RA_OF_ASC_NODE = 81.1304
ARG_OF_PERICENTER = 87.1123
MEAN_ANOMALY   = 69.6864

EPHEMERIS_TYPE = 0
CLASSIFICATION_TYPE = U
NORAD_CAT_ID   = 67652
ELEMENT_SET_NO = 999
REV_AT_EPOCH   = 359
BSTAR          = .44634E-5
MEAN_MOTION_DOT = .536E-5
MEAN_MOTION_DDOT = 0

CCSDS_OMM_VERS = 2.0
CREATION_DATE  = 
ORIGINATOR     = 

OBJECT_NAME    = STARLINK-36694
OBJECT_ID      = 2026-022F
CENTER_NAME    = EARTH
REF_FRAME      = TEME
TIME_SYSTEM    = UTC
MEAN_ELEMENT_THEORY = SGP/SGP4

EPOCH          = 2026-02-17T04:00:00.999936
MEAN_MOTION    = 15.75208652
ECCENTRICITY   = .0001201
INCLINATION    = 97.2840
RA_OF_ASC_NODE = 81.1354
ARG_OF_PERICENTER = 77.4156
MEAN_ANOMALY   = 91.3821

EPHEMERIS_TYPE = 0
CLASSIFICATION_TYPE = U
NORAD_CAT_ID   = 67653
ELEMENT_SET_NO = 999
REV_AT_EPOCH   = 359
BSTAR          = -.26081E-3
MEAN_MOTION_DOT = -.38886E-3
MEAN_MOTION_DDOT = 0

CCSDS_OMM_VERS = 2.0
CREATION_DATE  = 
ORIGINATOR     = 

OBJECT_NAME    = STARLINK-36620
OBJECT_ID      = 2026-022G
CENTER_NAME    = EARTH
REF_FRAME      = TEME
TIME_SYSTEM    = UTC
MEAN_ELEMENT_THEORY = SGP/SGP4

EPOCH          = 2026-02-17T04:00:00.999936
MEAN_MOTION    = 15.75212940
ECCENTRICITY   = .0001014
INCLINATION    = 97.2840
RA_OF_ASC_NODE = 81.1349
ARG_OF_PERICENTER = 76.0737
MEAN_ANOMALY   = 94.7249

EPHEMERIS_TYPE = 0
CLASSIFICATION_TYPE = U
NORAD_CAT_ID   = 67654
ELEMENT_SET_NO = 999
REV_AT_EPOCH   = 359
BSTAR          = -.31139E-3
MEAN_MOTION_DOT = -.46369E-3
MEAN_MOTION_DDOT = 0

CCSDS_OMM_VERS = 2.0
CREATION_DATE  = 
ORIGINATOR     = 

OBJECT_NAME    = STARLINK-36720
OBJECT_ID      = 2026-022H
CENTER_NAME    = EARTH
REF_FRAME      = TEME
TIME_SYSTEM    = UTC
MEAN_ELEMENT_THEORY = SGP/SGP4

EPOCH          = 2026-02-17T04:00:00.999936
MEAN_MOTION    = 15.75180983
ECCENTRICITY   = .0001332
INCLINATION    = 97.2838
RA_OF_ASC_NODE = 81.1396
ARG_OF_PERICENTER = 88.3558
MEAN_ANOMALY   = 92.4432

EPHEMERIS_TYPE = 0
CLASSIFICATION_TYPE = U
NORAD_CAT_ID   = 67655
ELEMENT_SET_NO = 999
REV_AT_EPOCH   = 359
BSTAR          = .64692E-4
MEAN_MOTION_DOT = .9526E-4
MEAN_MOTION_DDOT = 0

CCSDS_OMM_VERS = 2.0
CREATION_DATE  = 
ORIGINATOR     = 

OBJECT_NAME    = STARLINK-36688
OBJECT_ID      = 2026-022J
CENTER_NAME    = EARTH
REF_FRAME      = TEME
TIME_SYSTEM    = UTC
MEAN_ELEMENT_THEORY = SGP/SGP4

EPOCH          = 2026-02-17T04:00:00.999936
MEAN_MOTION    = 15.75199941
ECCENTRICITY   = .0001207
INCLINATION    = 97.2840
RA_OF_ASC_NODE = 81.1406
ARG_OF_PERICENTER = 93.5105
MEAN_ANOMALY   = 91.2858

EPHEMERIS_TYPE = 0
CLASSIFICATION_TYPE = U
NORAD_CAT_ID   = 67656
ELEMENT_SET_NO = 999
REV_AT_EPOCH   = 359
BSTAR          = -.10064E-3
MEAN_MOTION_DOT = -.15121E-3
MEAN_MOTION_DDOT = 0

CCSDS_OMM_VERS = 2.0
CREATION_DATE  = 
ORIGINATOR     = 

OBJECT_NAME    = STARLINK-36706
OBJECT_ID      = 2026-022K
CENTER_NAME    = EARTH
REF_FRAME      = TEME
TIME_SYSTEM    = UTC
MEAN_ELEMENT_THEORY = SGP/SGP4

EPOCH          = 2026-02-17T04:00:00.999936
MEAN_MOTION    = 15.75206412
ECCENTRICITY   = .000143
INCLINATION    = 97.2840
RA_OF_ASC_NODE = 81.1431
ARG_OF_PERICENTER = 88.0043
MEAN_ANOMALY   = 104.7846

EPHEMERIS_TYPE = 0
CLASSIFICATION_TYPE = U
NORAD_CAT_ID   = 67657
ELEMENT_SET_NO = 999
REV_AT_EPOCH   = 356
BSTAR          = -.24282E-3
MEAN_MOTION_DOT = -.3622E-3
MEAN_MOTION_DDOT = 0

CCSDS_OMM_VERS = 2.0
CREATION_DATE  = 
ORIGINATOR     = 

OBJECT_NAME    = STARLINK-36701
OBJECT_ID      = 2026-022L
CENTER_NAME    = EARTH
REF_FRAME      = TEME
TIME_SYSTEM    = UTC
MEAN_ELEMENT_THEORY = SGP/SGP4

EPOCH          = 2026-02-17T04:00:00.999936
MEAN_MOTION    = 15.75212117
ECCENTRICITY   = .0001253
INCLINATION    = 97.2841
RA_OF_ASC_NODE = 81.1465
ARG_OF_PERICENTER = 89.4816
MEAN_ANOMALY   = 109.3096

EPHEMERIS_TYPE = 0
CLASSIFICATION_TYPE = U
NORAD_CAT_ID   = 67658
ELEMENT_SET_NO = 999
REV_AT_EPOCH   = 359
BSTAR          = -.32549E-3
MEAN_MOTION_DOT = -.4845E-3
MEAN_MOTION_DDOT = 0

CCSDS_OMM_VERS = 2.0
CREATION_DATE  = 
ORIGINATOR     = 

OBJECT_NAME    = STARLINK-36642
OBJECT_ID      = 2026-022M
CENTER_NAME    = EARTH
REF_FRAME      = TEME
TIME_SYSTEM    = UTC
MEAN_ELEMENT_THEORY = SGP/SGP4

EPOCH          = 2026-02-17T04:00:00.999936
MEAN_MOTION    = 15.75228419
ECCENTRICITY   = .0001082
INCLINATION    = 97.2840
RA_OF_ASC_NODE = 81.1498
ARG_OF_PERICENTER = 95.0528
MEAN_ANOMALY   = 109.7276

EPHEMERIS_TYPE = 0
CLASSIFICATION_TYPE = U
NORAD_CAT_ID   = 67659
ELEMENT_SET_NO = 999
REV_AT_EPOCH   = 359
BSTAR          = -.46661E-3
MEAN_MOTION_DOT = -.69279E-3
MEAN_MOTION_DDOT = 0

CCSDS_OMM_VERS = 2.0
CREATION_DATE  = 
ORIGINATOR     = 

OBJECT_NAME    = STARLINK-36673
OBJECT_ID      = 2026-022N
CENTER_NAME    = EARTH
REF_FRAME      = TEME
TIME_SYSTEM    = UTC
MEAN_ELEMENT_THEORY = SGP/SGP4

EPOCH          = 2026-02-17T04:00:00.999936
MEAN_MOTION    = 15.75222314
ECCENTRICITY   = .0001365
INCLINATION    = 97.2841
RA_OF_ASC_NODE = 81.1516
ARG_OF_PERICENTER = 92.4487
MEAN_ANOMALY   = 120.3356

EPHEMERIS_TYPE = 0
CLASSIFICATION_TYPE = U
NORAD_CAT_ID   = 67660
ELEMENT_SET_NO = 999
REV_AT_EPOCH   = 359
BSTAR          = -.32801E-3
MEAN_MOTION_DOT = -.48844E-3
MEAN_MOTION_DDOT = 0

CCSDS_OMM_VERS = 2.0
CREATION_DATE  = 
ORIGINATOR     = 

OBJECT_NAME    = STARLINK-36674
OBJECT_ID      = 2026-022P
CENTER_NAME    = EARTH
REF_FRAME      = TEME
TIME_SYSTEM    = UTC
MEAN_ELEMENT_THEORY = SGP/SGP4

EPOCH          = 2026-02-17T04:00:00.999936
MEAN_MOTION    = 15.75229405
ECCENTRICITY   = .0001353
INCLINATION    = 97.2839
RA_OF_ASC_NODE = 81.1548
ARG_OF_PERICENTER = 99.0617
MEAN_ANOMALY   = 121.7187

EPHEMERIS_TYPE = 0
CLASSIFICATION_TYPE = U
NORAD_CAT_ID   = 67661
ELEMENT_SET_NO = 999
REV_AT_EPOCH   = 359
BSTAR          = -.56142E-3
MEAN_MOTION_DOT = -.83201E-3
MEAN_MOTION_DDOT = 0

CCSDS_OMM_VERS = 2.0
CREATION_DATE  = 
ORIGINATOR     = 

OBJECT_NAME    = STARLINK-36700
OBJECT_ID      = 2026-022Q
CENTER_NAME    = EARTH
REF_FRAME      = TEME
TIME_SYSTEM    = UTC
MEAN_ELEMENT_THEORY = SGP/SGP4

EPOCH          = 2026-02-17T04:00:00.999936
MEAN_MOTION    = 15.75221792
ECCENTRICITY   = .0001339
INCLINATION    = 97.2841
RA_OF_ASC_NODE = 81.1598
ARG_OF_PERICENTER = 81.6392
MEAN_ANOMALY   = 151.1521

EPHEMERIS_TYPE = 0
CLASSIFICATION_TYPE = U
NORAD_CAT_ID   = 67662
ELEMENT_SET_NO = 999
REV_AT_EPOCH   = 359
BSTAR          = -.37177E-3
MEAN_MOTION_DOT = -.553E-3
MEAN_MOTION_DDOT = 0

CCSDS_OMM_VERS = 2.0
CREATION_DATE  = 
ORIGINATOR     = 

OBJECT_NAME    = STARLINK-36675
OBJECT_ID      = 2026-022R
CENTER_NAME    = EARTH
REF_FRAME      = TEME
TIME_SYSTEM    = UTC
MEAN_ELEMENT_THEORY = SGP/SGP4

EPOCH          = 2026-02-17T04:00:00.999936
MEAN_MOTION    = 15.75214825
ECCENTRICITY   = .0001303
INCLINATION    = 97.2839
RA_OF_ASC_NODE = 81.1571
ARG_OF_PERICENTER = 76.6581
MEAN_ANOMALY   = 148.1301

EPHEMERIS_TYPE = 0
CLASSIFICATION_TYPE = U
NORAD_CAT_ID   = 67663
ELEMENT_SET_NO = 999
REV_AT_EPOCH   = 359
BSTAR          = -.21645E-3
MEAN_MOTION_DOT = -.32327E-3
MEAN_MOTION_DDOT = 0

